[{"OBJECT_NAME":"OUTPOST MISSION 1","OBJECT_ID":"2023-084BK","EPOCH":"2026-03-09T23:19:35.444064","MEAN_MOTION":15.70083334,"ECCENTRICITY":0.00047289,"INCLINATION":97.5968,"RA_OF_ASC_NODE":222.1792,"ARG_OF_PERICENTER":254.2575,"MEAN_ANOMALY":105.8165,"EPHEMERIS_TYPE":0,"CLASSIFICATION_TYPE":"U","NORAD_CAT_ID":56226,"ELEMENT_SET_NO":999,"REV_AT_EPOCH":15332,"BSTAR":0.000839791,"MEAN_MOTION_DOT":0.00102103,"MEAN_MOTION_DDOT":0},{"OBJECT_NAME":"STARLINK-11501 [DTC]","OBJECT_ID":"2024-237B","EPOCH":"2026-03-09T22:40:50.857248","MEAN_MOTION":15.70924261,"ECCENTRICITY":0.00010671,"INCLINATION":42.9996,"RA_OF_ASC_NODE":54.964,"ARG_OF_PERICENTER":217.8116,"MEAN_ANOMALY":142.2676,"EPHEMERIS_TYPE":0,"CLASSIFICATION_TYPE":"U","NORAD_CAT_ID":62268,"ELEMENT_SET_NO":999,"REV_AT_EPOCH":7304,"BSTAR":0.0016122815,"MEAN_MOTION_DOT":0.00212557,"MEAN_MOTION_DDOT":0}]
